*******************************************************************************
JPL/HORIZONS                  ATLAS (C/2025 N1)            2025-Sep-17 14:34:56
Rec #:90004914 (+COV) Soln.date: 2025-Sep-08_18:29:13     # obs: 603 (104 days)
 
IAU76/J2000 helio. ecliptic osc. elements (au, days, deg., period=Julian yrs):
 
  EPOCH=  2460878.5 ! 2025-Jul-22.0000000 (TDB)    RMSW= n.a.
   EC= 6.139587836355706   QR= 1.356419039495192   TP= 2460977.9814392594
   OM= 322.1568699043938   W= 128.0099421020839    IN= 175.1131015287974
   A= -.26391591751781     MA= -3.18224798181177   ADIST= 9.999999E99
   PER= 9.999999E99        N= 7.269519353          ANGMOM= .053532183
   DAN= -3.48262           DDN= 2.02568            L= 194.0456433
   B= 3.8486331            MOID= .36415401         TP= 2025-Oct-29.4814392594
 
Comet physical (GM= km^3/s^2; RAD= km):
   GM= n.a.                RAD= n.a.
   M1=  12.3     M2=  n.a.     k1=  4.5    k2= n.a.     PHCOF= n.a.
COMET comments 
1: soln ref.= JPL#26, data arc: 2025-05-15 to 2025-08-27
2: k1=4.5;
*******************************************************************************


*******************************************************************************
Ephemeris / WWW_USER Wed Sep 17 14:34:56 2025 Pasadena, USA      / Horizons    
*******************************************************************************
Target body name: ATLAS (C/2025 N1)               {source: JPL#26}
Center body name: Earth (399)                     {source: DE441}
Center-site name: Cerro Paranal
*******************************************************************************
Start time      : A.D. 2025-Sep-11 22:00:00.0000 UT      
Stop  time      : A.D. 2025-Sep-12 04:00:00.0000 UT      
Step-size       : 1 minutes
*******************************************************************************
Target pole/equ : undefined
Target radii    : undefined                                                    
Center geodetic : 289.5957, -24.6272128, 2.63514  {E-lon(deg),Lat(deg),Alt(km)}
Center cylindric: 289.5957,5803.73915,-2642.69127 {E-lon(deg),Dxy(km),Dz(km)}
Center pole/equ : ITRF93                          {East-longitude positive}
Center radii    : 6378.137, 6378.137, 6356.752 km {Equator_a, b, pole_c}       
Target primary  : Sun
Vis. interferer : MOON (R_eq= 1737.400) km        {source: DE441}
Rel. light bend : Sun                             {source: DE441}
Rel. lght bnd GM: 1.3271E+11 km^3/s^2                                          
Small-body perts: Yes                             {source: SB441-N16}
Atmos refraction: NO (AIRLESS)
RA format       : HMS
Time format     : BOTH
Calendar mode   : Mixed Julian/Gregorian
RTS-only print  : NO       
EOP file        : eop.250916.p251212                                           
EOP coverage    : DATA-BASED 1962-JAN-20 TO 2025-SEP-16. PREDICTS-> 2025-DEC-11
Units conversion: 1 au= 149597870.700 km, c= 299792.458 km/s, 1 day= 86400.0 s 
Table cut-offs 1: Elevation ( 20.0deg=YES),Airmass (< 2.600=YES),Daylight (NO )
Table cut-offs 2: Solar elongation (  0.0,180.0=NO ),Local Hour Angle( 0.0=NO )
Table cut-offs 3: RA/DEC angular rate (     0.0=NO )                           
Table format    : Comma Separated Values (spreadsheet)
*******************************************************************************
Initial IAU76/J2000 heliocentric ecliptic osculating elements (au, days, deg.):
  EPOCH=  2460878.5 ! 2025-Jul-22.0000000 (TDB)    RMSW= n.a.                  
   EC= 6.139587836355706   QR= 1.356419039495192   TP= 2460977.9814392594      
   OM= 322.1568699043938   W= 128.0099421020839    IN= 175.1131015287974       
  Equivalent ICRF heliocentric cartesian coordinates (au, au/d):
   X=-1.616994368572366E-02  Y=-3.597814381333365E+00  Z=-1.278571631651561E+00
  VX=-1.386152884723053E-02 VY= 3.077166736535444E-02 VZ= 1.171310239604216E-02
Comet physical (GM= km^3/s^2; RAD= km):                                        
   GM= n.a.                RAD= n.a.                                           
   M1=  12.3     M2=  n.a.     k1=  4.5    k2= n.a.     PHCOF= n.a.            
************************************************************************************************************************************************************************************
 Date__(UT)__HR:MN:SS, Date_________JDUT, , , R.A._____(ICRF), DEC______(ICRF),  dRA*cosD, d(DEC)/dt,    T-mag,  N-mag,                r,       rdot,             delta,     deldot,
************************************************************************************************************************************************************************************
$$SOE
 2025-Sep-12 00:25:00, 2460930.517361111, , , 15 04 16.651605, -13 11 02.27689,  -80.4360,  17.82223,   15.866,   n.a.,   2.193621970435,-48.8343275,  2.54832055462966, -3.2641767,
 2025-Sep-12 00:26:00, 2460930.518055555, , , 15 04 16.559851, -13 11 01.97742,  -80.4324,  17.82265,   15.866,   n.a.,   2.193602384034,-48.8340750,  2.54831924550754, -3.2632670,
 2025-Sep-12 00:27:00, 2460930.518750000, , , 15 04 16.468100, -13 11 01.67793,  -80.4288,  17.82307,   15.866,   n.a.,   2.193582797734,-48.8338225,  2.54831793674893, -3.2623642,
 2025-Sep-12 00:28:00, 2460930.519444444, , , 15 04 16.376354, -13 11 01.37845,  -80.4252,  17.82349,   15.866,   n.a.,   2.193563211535,-48.8335700,  2.54831662835107, -3.2614683,
 2025-Sep-12 00:29:00, 2460930.520138889, , , 15 04 16.284612, -13 11 01.07895,  -80.4216,  17.82390,   15.866,   n.a.,   2.193543625437,-48.8333175,  2.54831532031116, -3.2605794,
 2025-Sep-12 00:30:00, 2460930.520833333, , , 15 04 16.192874, -13 11 00.77945,  -80.4179,  17.82431,   15.866,   n.a.,   2.193524039441,-48.8330649,  2.54831401262641, -3.2596975,
 2025-Sep-12 00:31:00, 2460930.521527778, , , 15 04 16.101140, -13 11 00.47994,  -80.4143,  17.82472,   15.866,   n.a.,   2.193504453547,-48.8328124,  2.54831270529400, -3.2588225,
 2025-Sep-12 00:32:00, 2460930.522222222, , , 15 04 16.009410, -13 11 00.18042,  -80.4106,  17.82512,   15.866,   n.a.,   2.193484867753,-48.8325598,  2.54831139831112, -3.2579546,
 2025-Sep-12 00:33:00, 2460930.522916667, , , 15 04 15.917685, -13 10 59.88090,  -80.4070,  17.82552,   15.866,   n.a.,   2.193465282061,-48.8323073,  2.54831009167497, -3.2570938,
 2025-Sep-12 00:34:00, 2460930.523611111, , , 15 04 15.825963, -13 10 59.58137,  -80.4033,  17.82592,   15.866,   n.a.,   2.193445696471,-48.8320547,  2.54830878538272, -3.2562399,
 2025-Sep-12 00:35:00, 2460930.524305556, , , 15 04 15.734246, -13 10 59.28184,  -80.3996,  17.82631,   15.866,   n.a.,   2.193426110981,-48.8318021,  2.54830747943153, -3.2553932,
 2025-Sep-12 00:36:00, 2460930.525000000, , , 15 04 15.642534, -13 10 58.98230,  -80.3960,  17.82670,   15.866,   n.a.,   2.193406525593,-48.8315496,  2.54830617381857, -3.2545535,
 2025-Sep-12 00:37:00, 2460930.525694444, , , 15 04 15.550825, -13 10 58.68275,  -80.3923,  17.82709,   15.866,   n.a.,   2.193386940307,-48.8312970,  2.54830486854100, -3.2537209,
 2025-Sep-12 00:38:00, 2460930.526388889, , , 15 04 15.459121, -13 10 58.38320,  -80.3886,  17.82747,   15.866,   n.a.,   2.193367355121,-48.8310444,  2.54830356359596, -3.2528954,
 2025-Sep-12 00:39:00, 2460930.527083333, , , 15 04 15.367421, -13 10 58.08364,  -80.3849,  17.82786,   15.866,   n.a.,   2.193347770037,-48.8307918,  2.54830225898060, -3.2520771,
 2025-Sep-12 00:40:00, 2460930.527777778, , , 15 04 15.275725, -13 10 57.78407,  -80.3812,  17.82823,   15.866,   n.a.,   2.193328185055,-48.8305392,  2.54830095469207, -3.2512659,
 2025-Sep-12 00:41:00, 2460930.528472222, , , 15 04 15.184033, -13 10 57.48450,  -80.3775,  17.82861,   15.866,   n.a.,   2.193308600174,-48.8302866,  2.54829965072749, -3.2504618,
 2025-Sep-12 00:42:00, 2460930.529166667, , , 15 04 15.092346, -13 10 57.18492,  -80.3737,  17.82898,   15.866,   n.a.,   2.193289015394,-48.8300339,  2.54829834708399, -3.2496649,
 2025-Sep-12 00:43:00, 2460930.529861111, , , 15 04 15.000663, -13 10 56.88533,  -80.3700,  17.82934,   15.866,   n.a.,   2.193269430716,-48.8297813,  2.54829704375869, -3.2488752,
 2025-Sep-12 00:44:00, 2460930.530555556, , , 15 04 14.908985, -13 10 56.58574,  -80.3663,  17.82971,   15.866,   n.a.,   2.193249846138,-48.8295287,  2.54829574074870, -3.2480927,
 2025-Sep-12 00:45:00, 2460930.531250000, , , 15 04 14.817310, -13 10 56.28615,  -80.3625,  17.83007,   15.866,   n.a.,   2.193230261663,-48.8292760,  2.54829443805114, -3.2473175,
 2025-Sep-12 00:46:00, 2460930.531944444, , , 15 04 14.725640, -13 10 55.98654,  -80.3588,  17.83043,   15.866,   n.a.,   2.193210677289,-48.8290234,  2.54829313566311, -3.2465494,
 2025-Sep-12 00:47:00, 2460930.532638889, , , 15 04 14.633974, -13 10 55.68694,  -80.3550,  17.83078,   15.866,   n.a.,   2.193191093016,-48.8287707,  2.54829183358170, -3.2457886,
 2025-Sep-12 00:48:00, 2460930.533333333, , , 15 04 14.542313, -13 10 55.38732,  -80.3513,  17.83113,   15.866,   n.a.,   2.193171508844,-48.8285181,  2.54829053180401, -3.2450351,
 2025-Sep-12 00:49:00, 2460930.534027778, , , 15 04 14.450656, -13 10 55.08770,  -80.3475,  17.83148,   15.866,   n.a.,   2.193151924774,-48.8282654,  2.54828923032712, -3.2442888,
 2025-Sep-12 00:50:00, 2460930.534722222, , , 15 04 14.359003, -13 10 54.78808,  -80.3437,  17.83182,   15.866,   n.a.,   2.193132340805,-48.8280127,  2.54828792914812, -3.2435498,
 2025-Sep-12 00:51:00, 2460930.535416667, , , 15 04 14.267355, -13 10 54.48845,  -80.3400,  17.83216,   15.866,   n.a.,   2.193112756938,-48.8277600,  2.54828662826407, -3.2428181,
 2025-Sep-12 00:52:00, 2460930.536111111, , , 15 04 14.175711, -13 10 54.18881,  -80.3362,  17.83250,   15.866,   n.a.,   2.193093173172,-48.8275073,  2.54828532767205, -3.2420937,
 2025-Sep-12 00:53:00, 2460930.536805556, , , 15 04 14.084071, -13 10 53.88917,  -80.3324,  17.83283,   15.866,   n.a.,   2.193073589508,-48.8272546,  2.54828402736912, -3.2413766,
